RADUGA 1 [-]            
1 08513U 75123A   22276.73467242 -.00000005  00000+0  00000+0 0  9993
2 08513   6.2823 287.0832 0008050 220.2945 193.7497  1.00274319181251
RADUGA 2 [-]            
1 09416U 76092A   22277.50642924 -.00000152  00000+0  00000+0 0  9993
2 09416   6.9439 289.0633 0026405 357.9559 347.2798  1.00297365115789
RADUGA 3 [-]            
1 10159U 77071A   22276.85069142 -.00000287  00000+0  00000+0 0  9998
2 10159   7.5612 291.6731 0009769 237.9200 245.8923  1.00203569163483
RADUGA 4 [-]            
1 10987U 78073A   22277.17063236  .00000123  00000+0  00000+0 0  9992
2 10987   8.1865 295.1904 0007952 355.1748 185.0212  1.00302543106038
RADUGA 5 [-]            
1 11343U 79035A   22276.84424690 -.00000191  00000+0  00000+0 0  9992
2 11343   8.6468 297.9598 0006844 177.0178 285.5456  1.00259235115793
RADUGA 6 [-]            
1 11708U 80016A   22277.14585574 -.00000075  00000+0  00000+0 0  9992
2 11708   9.0072 301.0347 0003468 207.5299 346.5253  1.00343609108597
RADUGA 7 [-]            
1 12003U 80081A   22276.91148476 -.00000213  00000+0  00000+0 0  9997
2 12003   9.1924 302.9908 0010378 260.9769 110.5455  1.00283440109869
RADUGA 8 [-]            
1 12351U 81027A   22277.01104403 -.00000380  00000+0  00000+0 0  9993
2 12351   9.5236 303.5769 0083035 230.3763 316.7362  1.00393021108966
RADUGA 9 [-]            
1 12618U 81069A   22277.15952247 -.00000011  00000+0  00000+0 0  9998
2 12618   9.7442 306.5438 0004336 164.2610  21.8540  1.00351699114775
RADUGA 10 [-]           
1 12897U 81102A   22276.84424672 -.00000203  00000+0  00000+0 0  9999
2 12897   9.8306 307.5273 0006325 184.1294 269.4620  1.00281525103789
RADUGA 11 [-]           
1 13669U 82113A   22276.87425291 -.00000109  00000+0  00000+0 0  9996
2 13669  11.8829 321.2720 0038480 254.8911 224.3006  0.97708717108323
RADUGA 12 [-]           
1 13974U 83028A   22276.83528581 -.00000046  00000+0  00000+0 0  9993
2 13974  10.9799 317.3072 0002474 132.1346 291.6279  1.00288468155825
RADUGA 13 [-]           
1 14307U 83088A   22276.11161638 -.00000059  00000+0  00000+0 0  9991
2 14307  12.1345 322.8220 0014384  45.3202 324.1101  0.98173356105660
RADUGA 14 [-]           
1 14725U 84016A   22276.84558499 -.00000216  00000+0  00000+0 0  9997
2 14725  11.1897 321.0777 0005557 148.7763 293.4166  1.00265890104549
RADUGA 15 [-]           
1 15057U 84063A   22276.78179402 -.00000361  00000+0  00000+0 0  9995
2 15057  11.3127 322.0667 0006397 163.1857 296.5815  1.00293138127549
RADUGA 16 [-]           
1 15946U 85070A   22276.81116781  .00000087  00000+0  00000+0 0  9990
2 15946  11.7795 326.7376 0002844 170.0712 358.7994  1.00299784108652
RADUGA 17 [-]           
1 16250U 85107A   22277.12022007 -.00000188  00000+0  00000+0 0  9995
2 16250  11.9033 328.1259 0015244 184.0158 174.7789  1.00130464138257
RADUGA 18 [-]           
1 16497U 86007A   22276.84753035 -.00000143  00000+0  00000+0 0  9999
2 16497  12.7139 330.8426 0076285 167.0083 192.7690  0.98814359132558
RADUGA 19 [-]           
1 17046U 86082A   22276.11240118 -.00000078  00000+0  00000+0 0  9993
2 17046  13.1478 334.7850 0014248 152.5130 209.3803  0.98459639129594
RADUGA 20 [-]           
1 17611U 87028A   22277.04854015 -.00000124  00000+0  00000+0 0  9994
2 17611  15.1641 338.2940 0031099 140.1335 213.2848  0.95961623125326
RADUGA 21 [-]           
1 18631U 87100A   22276.32692431  .00000105  00000+0  00000+0 0  9998
2 18631  13.2371 335.6202 0004051 137.0737 224.4600  1.00304158127524
RADUGA 22 [-]           
1 19596U 88095A   22276.83450042 -.00000379  00000+0  00000+0 0  9993
2 19596  13.2248 339.9177 0008144 143.6472 310.3978  1.00209376108092
RADUGA 23 [-]           
1 19928U 89030A   22276.72168793  .00000084  00000+0  00000+0 0  9991
2 19928  13.3761 341.7388 0022966 164.3901 174.3791  1.00344670121286
RADUGA-1 1 [-]          
1 20083U 89048A   22277.36596704 -.00000091  00000+0  00000+0 0  9991
2 20083  14.1314 344.8009 0022973 117.6830 245.3056  0.98709538117920
RADUGA 24 [-]           
1 20367U 89098A   22276.76299441  .00000051  00000+0  00000+0 0  9997
2 20367  13.9526 343.9951 0002610 145.2769 214.4005  1.00220503119474
RADUGA 25 [-]           
1 20499U 90016A   22277.28692942 -.00000261  00000+0  00000+0 0  9990
2 20499  13.7224 344.6485 0006289 147.8319 267.4706  1.00178278119396
RADUGA 26 [-]           
1 21016U 90112A   22276.83500889 -.00000083  00000+0  00000+0 0  9993
2 21016  14.0413 347.9072 0007666  99.2310 296.5813  1.00321337116682
RADUGA-1 2 [-]          
1 21038U 90116A   22276.81021738  .00000083  00000+0  00000+0 0  9999
2 21038  14.0795 347.9797 0009082 106.5230 258.9100  1.00282933 33788
RADUGA 27 [-]           
1 21132U 91014A   22275.87931436  .00000092  00000+0  00000+0 0  9992
2 21132  14.5895 347.5225 0004232 112.9502 247.2711  1.00294574115735
RADUGA 28 [-]           
1 21821U 91087A   22276.84715484 -.00000236  00000+0  00000+0 0  9999
2 21821  14.3602 351.2478 0008484 130.6678 285.6161  1.00188895112763
RADUGA 29 [-]           
1 22557U 93013A   22276.83313323  .00000099  00000+0  00000+0 0  9998
2 22557  14.5722 355.4253 0008267 119.6585 240.6246  1.00361967108117
RADUGA 30 [-]           
1 22836U 93062A   22276.74470228 -.00000101  00000+0  00000+0 0  9995
2 22836  14.6155 357.3992 0000785  40.1431 316.6992  1.00259177 32436
RADUGA-1 3 [-]          
1 22981U 94008A   22276.85049139 -.00000277  00000+0  00000+0 0  9996
2 22981  14.6950 358.5475 0004686 117.4915 296.6023  1.00233571104924
RADUGA 31 [-]           
1 23010U 94012A   22276.73595334 -.00000042  00000+0  00000+0 0  9995
2 23010  14.6648 358.5465 0006226 102.2821 241.9873  1.00336537104787
RADUGA 32 [-]           
1 23448U 94087A   22276.75188284 -.00000109  00000+0  00000+0 0  9990
2 23448  14.6509   1.2606 0005457 193.1837 163.2091  1.00261045119312
RADUGA-1 4 [-]          
1 25642U 99010A   22276.84007916  .00000105  00000+0  00000+0 0  9996
2 25642  15.2348  12.8281 0002089 217.4514 126.8914  1.00317175 86380
RADUGA-1 5 [-]          
1 26477U 00049A   22276.84007916  .00000100  00000+0  00000+0 0  9992
2 26477  13.1900  17.7233 0005576  74.4610 268.1265  1.00294182 80858
RADUGA-1 6 [-]          
1 26936U 01045A   22276.45539029 -.00000122  00000+0  00000+0 0  9996
2 26936  13.3648  24.0532 0016935 163.5341 193.8885  0.97745022 75376
RADUGA-1 7 [-]          
1 28194U 04010A   22276.88065155 -.00000379  00000+0  00000+0 0  9994
2 28194  12.0934  30.8736 0002467 158.2603 261.9180  1.00223666 67844
RADUGA-1M 1 [-]         
1 32373U 07058A   22276.59996851  .00000060  00000+0  00000+0 0  9993
2 32373   7.1316  63.2859 0002786  48.0014 327.6498  0.99397023 38957
RADUGA-1 8 [-]          
1 34264U 09010A   22276.83096229 -.00000238  00000+0  00000+0 0  9999
2 34264   9.4367  53.2617 0013851   6.8257 181.5963  0.99820934 49662
RADUGA-1M 2 [+]         
1 36358U 10002A   22277.55952216 -.00000197  00000+0  00000+0 0  9999
2 36358   0.1212 107.6448 0001110 188.1853   3.8012  1.00268343 46450
RADUGA-1M 3 [+]         
1 39375U 13062A   22276.92369281  .00000144  00000+0  00000+0 0  9995
2 39375   2.5014  88.4541 0001304 130.7106 160.9657  1.00272839 32569
